IRIDIUM 7               
1 24793U 97020B   25282.03966587  .00000430  00000+0  14140-3 0  9995
2 24793  86.3943 129.2391 0002450  89.7730 270.3748 14.36025638488236
IRIDIUM 5               
1 24795U 97020D   25282.04403972  .00008960  00000+0  71330-3 0  9992
2 24795  86.3922  31.1642 0108373  89.4374 271.9272 14.95645434502476
IRIDIUM 4               
1 24796U 97020E   25282.09102531  .00000444  00000+0  14352-3 0  9995
2 24796  86.3933 126.0189 0002214  90.2483 269.8967 14.36927611488821
IRIDIUM 914             
1 24836U 97030A   25282.12235161  .00000498  00000+0  14905-3 0  9994
2 24836  86.3929 134.2713 0002031 131.0686 229.0690 14.40974812623531
IRIDIUM 16              
1 24841U 97030F   25282.11439081  .00000442  00000+0  13751-3 0  9993
2 24841  86.4075 157.4679 0004146  68.6771 291.4870 14.38805283483389
IRIDIUM 911             
1 24842U 97030G   25282.16365083  .00000654  00000+0  17132-3 0  9991
2 24842  86.4497 156.0942 0016357  78.7548 281.5492 14.47780003491579
IRIDIUM 17              
1 24870U 97034B   25282.17133257  .00000584  00000+0  18683-3 0  9997
2 24870  86.4028 186.8564 0002928  49.9730 310.1724 14.37940194479967
IRIDIUM 920             
1 24871U 97034C   25282.12956753  .00000562  00000+0  16650-3 0  9995
2 24871  86.4029 165.8691 0013636  68.9437 291.3220 14.41643402482995
